start=new Date('2022-11-20T00:00:00.000Z').valueOf();
sats=[{"SITE":"AFETR","MEAN_MOTION_DOT":"0.00000861","CENTER_NAME":"EARTH","LAUNCH_DATE":"2022-01-19","FILE":"3663431","TLE_LINE1":"1 51138U 22005AL  22323.69088498  .00000861  00000-0  72199-4 0  9998","OBJECT_NAME":"STARLINK-3177","PERIAPSIS":"537.735","PERIOD":"95.437","EPHEMERIS_TYPE":"0","SEMIMAJOR_AXIS":"6917.861","OBJECT_TYPE":"PAYLOAD","TIME_SYSTEM":"UTC","INCLINATION":"53.2196","REF_FRAME":"TEME","ECCENTRICITY":"0.00028780","MEAN_MOTION_DDOT":"0.0000000000000","RA_OF_ASC_NODE":"313.0587","CLASSIFICATION_TYPE":"U","ARG_OF_PERICENTER":"28.9909","MEAN_MOTION":"15.08846434","TLE_LINE2":"2 51138  53.2196 313.0587 0002878  28.9909 331.1242 15.08846434 47780","EPOCH":"2022-11-19T16:34:52.462272","APOAPSIS":"541.717","NORAD_CAT_ID":"51138","BSTAR":"0.00007219900000","ELEMENT_SET_NO":"999","GP_ID":"218211271","MEAN_ELEMENT_THEORY":"SGP4","RCS_SIZE":"LARGE","REV_AT_EPOCH":"4778","DECAY_DATE":null,"OBJECT_ID":"2022-005AL","COUNTRY_CODE":"US","MEAN_ANOMALY":"331.1242"},{"MEAN_MOTION_DOT":"-0.00000356","CENTER_NAME":"EARTH","SITE":"AFETR","FILE":"3663282","TLE_LINE1":"1 51139U 22005AM  22323.47744844 -.00000356  00000-0 -42256-5 0  9992","LAUNCH_DATE":"2022-01-19","PERIOD":"95.437","SEMIMAJOR_AXIS":"6917.867","EPHEMERIS_TYPE":"0","OBJECT_NAME":"STARLINK-3172","PERIAPSIS":"538.060","INCLINATION":"53.2177","ECCENTRICITY":"0.00024170","REF_FRAME":"TEME","OBJECT_TYPE":"PAYLOAD","TIME_SYSTEM":"UTC","MEAN_MOTION_DDOT":"0.0000000000000","MEAN_MOTION":"15.08844528","ARG_OF_PERICENTER":"38.8114","RA_OF_ASC_NODE":"314.0293","CLASSIFICATION_TYPE":"U","ELEMENT_SET_NO":"999","TLE_LINE2":"2 51139  53.2177 314.0293 0002417  38.8114 321.3051 15.08844528 47750","BSTAR":"-0.00000422560000","NORAD_CAT_ID":"51139","APOAPSIS":"541.404","EPOCH":"2022-11-19T11:27:31.545216","COUNTRY_CODE":"US","MEAN_ANOMALY":"321.3051","RCS_SIZE":"LARGE","GP_ID":"218181694","MEAN_ELEMENT_THEORY":"SGP4","DECAY_DATE":null,"OBJECT_ID":"2022-005AM","REV_AT_EPOCH":"4775"},{"ELEMENT_SET_NO":"999","NORAD_CAT_ID":"51140","BSTAR":"0.00016218000000","APOAPSIS":"541.752","EPOCH":"2022-11-19T16:29:34.694304","TLE_LINE2":"2 51140  53.2173 313.0794 0002956  36.9332 323.1863 15.08852582 47785","MEAN_ANOMALY":"323.1863","COUNTRY_CODE":"US","DECAY_DATE":null,"OBJECT_ID":"2022-005AN","REV_AT_EPOCH":"4778","RCS_SIZE":"LARGE","MEAN_ELEMENT_THEORY":"SGP4","GP_ID":"218211305","MEAN_MOTION_DDOT":"0.0000000000000","MEAN_MOTION":"15.08852582","ARG_OF_PERICENTER":"36.9332","CLASSIFICATION_TYPE":"U","RA_OF_ASC_NODE":"313.0794","EPHEMERIS_TYPE":"0","SEMIMAJOR_AXIS":"6917.842","PERIOD":"95.437","PERIAPSIS":"537.662","OBJECT_NAME":"STARLINK-3175","ECCENTRICITY":"0.00029560","REF_FRAME":"TEME","INCLINATION":"53.2173","TIME_SYSTEM":"UTC","OBJECT_TYPE":"PAYLOAD","MEAN_MOTION_DOT":"0.00002294","CENTER_NAME":"EARTH","SITE":"AFETR","TLE_LINE1":"1 51140U 22005AN  22323.68720711  .00002294  00000-0  16218-3 0  9992","FILE":"3663455","LAUNCH_DATE":"2022-01-19"},{"CLASSIFICATION_TYPE":"U","RA_OF_ASC_NODE":"313.1717","MEAN_MOTION":"15.08854282","ARG_OF_PERICENTER":"32.1702","MEAN_MOTION_DDOT":"0.0000000000000","OBJECT_ID":"2022-005AP","DECAY_DATE":null,"REV_AT_EPOCH":"4778","RCS_SIZE":"LARGE","MEAN_ELEMENT_THEORY":"SGP4","GP_ID":"218211765","MEAN_ANOMALY":"327.9489","COUNTRY_CODE":"US","BSTAR":"0.00030699000000","NORAD_CAT_ID":"51141","APOAPSIS":"541.962","EPOCH":"2022-11-19T16:03:05.313600","TLE_LINE2":"2 51141  53.2153 313.1717 0003268  32.1702 327.9489 15.08854282 47781","ELEMENT_SET_NO":"999","LAUNCH_DATE":"2022-01-19","TLE_LINE1":"1 51141U 22005AP  22323.66881150  .00004603  00000-0  30699-3 0  9991","FILE":"3663431","SITE":"AFETR","CENTER_NAME":"EARTH","MEAN_MOTION_DOT":"0.00004603","TIME_SYSTEM":"UTC","OBJECT_TYPE":"PAYLOAD","ECCENTRICITY":"0.00032680","REF_FRAME":"TEME","INCLINATION":"53.2153","PERIAPSIS":"537.441","OBJECT_NAME":"STARLINK-3179","EPHEMERIS_TYPE":"0","SEMIMAJOR_AXIS":"6917.837","PERIOD":"95.437"},{"CLASSIFICATION_TYPE":"U","RA_OF_ASC_NODE":"303.1953","ARG_OF_PERICENTER":"36.9062","MEAN_MOTION":"15.08842881","MEAN_MOTION_DDOT":"0.0000000000000","REV_AT_EPOCH":"4795","OBJECT_ID":"2022-005AQ","DECAY_DATE":null,"MEAN_ELEMENT_THEORY":"SGP4","GP_ID":"218211760","RCS_SIZE":"LARGE","MEAN_ANOMALY":"323.2123","COUNTRY_CODE":"US","APOAPSIS":"541.680","EPOCH":"2022-11-19T15:55:11.479584","BSTAR":"0.00004739200000","NORAD_CAT_ID":"51142","TLE_LINE2":"2 51142  53.2155 303.1953 0002809  36.9062 323.2123 15.08842881 47951","ELEMENT_SET_NO":"999","LAUNCH_DATE":"2022-01-19","TLE_LINE1":"1 51142U 22005AQ  22323.66332731  .00000466  00000-0  47392-4 0  9990","FILE":"3663431","SITE":"AFETR","CENTER_NAME":"EARTH","MEAN_MOTION_DOT":"0.00000466","TIME_SYSTEM":"UTC","OBJECT_TYPE":"PAYLOAD","REF_FRAME":"TEME","ECCENTRICITY":"0.00028090","INCLINATION":"53.2155","PERIAPSIS":"537.793","OBJECT_NAME":"STARLINK-3369","EPHEMERIS_TYPE":"0","SEMIMAJOR_AXIS":"6917.872","PERIOD":"95.437"},{"MEAN_MOTION":"15.08850124","ARG_OF_PERICENTER":"39.5044","RA_OF_ASC_NODE":"322.9389","CLASSIFICATION_TYPE":"U","MEAN_MOTION_DDOT":"0.0000000000000","COUNTRY_CODE":"US","MEAN_ANOMALY":"320.6130","RCS_SIZE":"LARGE","GP_ID":"218237624","MEAN_ELEMENT_THEORY":"SGP4","DECAY_DATE":null,"OBJECT_ID":"2022-005AR","REV_AT_EPOCH":"4653","ELEMENT_SET_NO":"999","TLE_LINE2":"2 51143  53.2165 322.9389 0002503  39.5044 320.6130 15.08850124 46536","BSTAR":"0.00010902000000","NORAD_CAT_ID":"51143","EPOCH":"2022-11-19T17:15:56.936736","APOAPSIS":"541.446","FILE":"3663561","TLE_LINE1":"1 51143U 22005AR  22323.71940899  .00001448  00000-0  10902-3 0  9994","LAUNCH_DATE":"2022-01-19","MEAN_MOTION_DOT":"0.00001448","CENTER_NAME":"EARTH","SITE":"AFETR","INCLINATION":"53.2165","ECCENTRICITY":"0.00025030","REF_FRAME":"TEME","OBJECT_TYPE":"PAYLOAD","TIME_SYSTEM":"UTC","PERIOD":"95.437","EPHEMERIS_TYPE":"0","SEMIMAJOR_AXIS":"6917.849","OBJECT_NAME":"STARLINK-3184","PERIAPSIS":"537.983"},{"MEAN_MOTION_DDOT":"0.0000000000000","MEAN_MOTION":"15.08841131","ARG_OF_PERICENTER":"29.7921","RA_OF_ASC_NODE":"313.1585","CLASSIFICATION_TYPE":"U","ELEMENT_SET_NO":"999","TLE_LINE2":"2 51144  53.2180 313.1585 0002652  29.7921 330.3221 15.08841131 47789","BSTAR":"0.00004778300000","NORAD_CAT_ID":"51144","EPOCH":"2022-11-19T16:08:23.017632","APOAPSIS":"541.577","COUNTRY_CODE":"US","MEAN_ANOMALY":"330.3221","RCS_SIZE":"LARGE","MEAN_ELEMENT_THEORY":"SGP4","GP_ID":"218211265","DECAY_DATE":null,"OBJECT_ID":"2022-005AS","REV_AT_EPOCH":"4778","CENTER_NAME":"EARTH","MEAN_MOTION_DOT":"0.00000472","SITE":"AFETR","FILE":"3663431","TLE_LINE1":"1 51144U 22005AS  22323.67248863  .00000472  00000-0  47783-4 0  9996","LAUNCH_DATE":"2022-01-19","PERIOD":"95.437","SEMIMAJOR_AXIS":"6917.877","EPHEMERIS_TYPE":"0","OBJECT_NAME":"STARLINK-3185","PERIAPSIS":"537.907","INCLINATION":"53.2180","ECCENTRICITY":"0.00026520","REF_FRAME":"TEME","OBJECT_TYPE":"PAYLOAD","TIME_SYSTEM":"UTC"},{"PERIAPSIS":"538.555","OBJECT_NAME":"STARLINK-3365","SEMIMAJOR_AXIS":"6917.875","EPHEMERIS_TYPE":"0","PERIOD":"95.437","TIME_SYSTEM":"UTC","OBJECT_TYPE":"PAYLOAD","ECCENTRICITY":"0.00017140","REF_FRAME":"TEME","INCLINATION":"53.2155","SITE":"AFETR","CENTER_NAME":"EARTH","MEAN_MOTION_DOT":"0.00002436","LAUNCH_DATE":"2022-01-19","TLE_LINE1":"1 51145U 22005AT  22323.71573735  .00002436  00000-0  17106-3 0  9998","FILE":"3663561","NORAD_CAT_ID":"51145","BSTAR":"0.00017106000000","APOAPSIS":"540.926","EPOCH":"2022-11-19T17:10:39.707040","TLE_LINE2":"2 51145  53.2155 322.9611 0001714  65.5392 294.5779 15.08841636 46539","ELEMENT_SET_NO":"999","DECAY_DATE":null,"OBJECT_ID":"2022-005AT","REV_AT_EPOCH":"4653","RCS_SIZE":"LARGE","GP_ID":"218236632","MEAN_ELEMENT_THEORY":"SGP4","MEAN_ANOMALY":"294.5779","COUNTRY_CODE":"US","MEAN_MOTION_DDOT":"0.0000000000000","CLASSIFICATION_TYPE":"U","RA_OF_ASC_NODE":"322.9611","MEAN_MOTION":"15.08841636","ARG_OF_PERICENTER":"65.5392"},{"PERIOD":"95.437","EPHEMERIS_TYPE":"0","SEMIMAJOR_AXIS":"6917.870","OBJECT_NAME":"STARLINK-3354","PERIAPSIS":"537.944","INCLINATION":"53.2170","REF_FRAME":"TEME","ECCENTRICITY":"0.00025890","OBJECT_TYPE":"PAYLOAD","TIME_SYSTEM":"UTC","CENTER_NAME":"EARTH","MEAN_MOTION_DOT":"-0.00000802","SITE":"AFETR","FILE":"3663561","TLE_LINE1":"1 51146U 22005AU  22323.67984758 -.00000802  00000-0 -32240-4 0  9999","LAUNCH_DATE":"2022-01-19","ELEMENT_SET_NO":"999","TLE_LINE2":"2 51146  53.2170 313.1188 0002589  22.9452 337.1655 15.08843479 46661","EPOCH":"2022-11-19T16:18:58.830912","APOAPSIS":"541.526","NORAD_CAT_ID":"51146","BSTAR":"-0.00003224000000","COUNTRY_CODE":"US","MEAN_ANOMALY":"337.1655","MEAN_ELEMENT_THEORY":"SGP4","GP_ID":"218237382","RCS_SIZE":"LARGE","REV_AT_EPOCH":"4666","DECAY_DATE":null,"OBJECT_ID":"2022-005AU","MEAN_MOTION_DDOT":"0.0000000000000","ARG_OF_PERICENTER":"22.9452","MEAN_MOTION":"15.08843479","RA_OF_ASC_NODE":"313.1188","CLASSIFICATION_TYPE":"U"},{"SITE":"AFETR","MEAN_MOTION_DOT":"0.00002723","CENTER_NAME":"EARTH","LAUNCH_DATE":"2022-01-19","TLE_LINE1":"1 51147U 22005AV  22323.72308981  .00002723  00000-0  18912-3 0  9995","FILE":"3663561","PERIAPSIS":"537.970","OBJECT_NAME":"STARLINK-3352","EPHEMERIS_TYPE":"0","SEMIMAJOR_AXIS":"6917.859","PERIOD":"95.437","TIME_SYSTEM":"UTC","OBJECT_TYPE":"PAYLOAD","REF_FRAME":"TEME","ECCENTRICITY":"0.00025350","INCLINATION":"53.2168","MEAN_MOTION_DDOT":"0.0000000000000","CLASSIFICATION_TYPE":"U","RA_OF_ASC_NODE":"322.9283","ARG_OF_PERICENTER":"38.7531","MEAN_MOTION":"15.08847111","EPOCH":"2022-11-19T17:21:14.959584","APOAPSIS":"541.477","BSTAR":"0.00018912000000","NORAD_CAT_ID":"51147","TLE_LINE2":"2 51147  53.2168 322.9283 0002535  38.7531 321.3642 15.08847111 46531","ELEMENT_SET_NO":"999","REV_AT_EPOCH":"4653","OBJECT_ID":"2022-005AV","DECAY_DATE":null,"GP_ID":"218238124","MEAN_ELEMENT_THEORY":"SGP4","RCS_SIZE":"LARGE","MEAN_ANOMALY":"321.3642","COUNTRY_CODE":"US"}];
